{
  "type": "FeatureCollection",
  "features": [
    {
      "type": "Feature",
      "properties": {
        "norad_id": 32376,
        "name": "COSMO-SKYMED 2",
        "group": "resource",
        "lat": -72.89568826435426,
        "lon": -44.936013320416386,
        "alt_km": 630.897783840227,
        "timestamp": "2025-12-06T09:34:16.574506+00:00",
        "meta_object_name": "COSMO-SKYMED 2",
        "meta_object_id": "2007-059A",
        "meta_epoch": "2025-12-05T22:42:13.955040",
        "meta_mean_motion": 14.82152748,
        "meta_eccentricity": 0.00015344,
        "meta_inclination": 97.8814,
        "meta_ra_of_asc_node": 161.372,
        "meta_arg_of_pericenter": 87.3811,
        "meta_mean_anomaly": 272.7577,
        "meta_ephemeris_type": 0,
        "meta_classification_type": "U",
        "meta_norad_cat_id": 32376,
        "meta_element_set_no": 999,
        "meta_rev_at_epoch": 97337,
        "meta_bstar": 0.00014088668,
        "meta_mean_motion_dot": 1.069e-05,
        "meta_mean_motion_ddot": 0,
        "tle_line1": "1 32376U 07059A   25339.94599485  .00001069  00000+0  14089-3 0  9997",
        "tle_line2": "2 32376  97.8814 161.3720 0001534  87.3811 272.7577 14.82152748973379"
      },
      "geometry": {
        "type": "Point",
        "coordinates": [
          -44.936013320416386,
          -72.89568826435426
        ]
      }
    },
    {
      "type": "Feature",
      "properties": {
        "norad_id": 32382,
        "name": "RADARSAT-2",
        "group": "resource",
        "lat": -46.719925993652964,
        "lon": -5.693440947718149,
        "alt_km": 799.1052976365863,
        "timestamp": "2025-12-06T09:34:16.574516+00:00",
        "meta_object_name": "RADARSAT-2",
        "meta_object_id": "2007-061A",
        "meta_epoch": "2025-12-05T23:43:00.561216",
        "meta_mean_motion": 14.29984712,
        "meta_eccentricity": 0.00010758,
        "meta_inclination": 98.5798,
        "meta_ra_of_asc_node": 344.6765,
        "meta_arg_of_pericenter": 91.3818,
        "meta_mean_anomaly": 268.7488,
        "meta_ephemeris_type": 0,
        "meta_classification_type": "U",
        "meta_norad_cat_id": 32382,
        "meta_element_set_no": 999,
        "meta_rev_at_epoch": 93834,
        "meta_bstar": 7.8289908e-05,
        "meta_mean_motion_dot": 1.58e-06,
        "meta_mean_motion_ddot": 0,
        "tle_line1": "1 32382U 07061A   25339.98820094  .00000158  00000+0  78290-4 0  9997",
        "tle_line2": "2 32382  98.5798 344.6765 0001075  91.3818 268.7488 14.29984712938341"
      },
      "geometry": {
        "type": "Point",
        "coordinates": [
          -5.693440947718149,
          -46.719925993652964
        ]
      }
    },
    {
      "type": "Feature",
      "properties": {
        "norad_id": 32783,
        "name": "CARTOSAT-2A",
        "group": "resource",
        "lat": 70.15005252715476,
        "lon": -127.28315370263793,
        "alt_km": 625.0011712972346,
        "timestamp": "2025-12-06T09:34:16.574527+00:00",
        "meta_object_name": "CARTOSAT-2A",
        "meta_object_id": "2008-021A",
        "meta_epoch": "2025-12-05T23:20:29.577120",
        "meta_mean_motion": 14.7891739,
        "meta_eccentricity": 0.00123184,
        "meta_inclination": 97.7939,
        "meta_ra_of_asc_node": 30.0073,
        "meta_arg_of_pericenter": 25.9019,
        "meta_mean_anomaly": 334.2806,
        "meta_ephemeris_type": 0,
        "meta_classification_type": "U",
        "meta_norad_cat_id": 32783,
        "meta_element_set_no": 999,
        "meta_rev_at_epoch": 95024,
        "meta_bstar": 0.00022797039,
        "meta_mean_motion_dot": 1.632e-05,
        "meta_mean_motion_ddot": 0,
        "tle_line1": "1 32783U 08021A   25339.97256455  .00001632  00000+0  22797-3 0  9990",
        "tle_line2": "2 32783  97.7939  30.0073 0012318  25.9019 334.2806 14.78917390950248"
      },
      "geometry": {
        "type": "Point",
        "coordinates": [
          -127.28315370263793,
          70.15005252715476
        ]
      }
    },
    {
      "type": "Feature",
      "properties": {
        "norad_id": 33320,
        "name": "HUANJING 1A (HJ-1A)",
        "group": "resource",
        "lat": -51.571732195629494,
        "lon": 139.20461935706263,
        "alt_km": 640.059128473009,
        "timestamp": "2025-12-06T09:34:16.574537+00:00",
        "meta_object_name": "HUANJING 1A (HJ-1A)",
        "meta_object_id": "2008-041A",
        "meta_epoch": "2025-12-05T22:48:54.376704",
        "meta_mean_motion": 14.83360733,
        "meta_eccentricity": 0.00205374,
        "meta_inclination": 97.6532,
        "meta_ra_of_asc_node": 328.5328,
        "meta_arg_of_pericenter": 55.6627,
        "meta_mean_anomaly": 304.6527,
        "meta_ephemeris_type": 0,
        "meta_classification_type": "U",
        "meta_norad_cat_id": 33320,
        "meta_element_set_no": 999,
        "meta_rev_at_epoch": 92975,
        "meta_bstar": 0.00035056487,
        "meta_mean_motion_dot": 2.833e-05,
        "meta_mean_motion_ddot": 0,
        "tle_line1": "1 33320U 08041A   25339.95062936  .00002833  00000+0  35056-3 0  9993",
        "tle_line2": "2 33320  97.6532 328.5328 0020537  55.6627 304.6527 14.83360733929751"
      },
      "geometry": {
        "type": "Point",
        "coordinates": [
          139.20461935706263,
          -51.571732195629494
        ]
      }
    },
    {
      "type": "Feature",
      "properties": {
        "norad_id": 33321,
        "name": "HUANJING 1B (HJ-1B)",
        "group": "resource",
        "lat": 71.98346290433763,
        "lon": 177.04822491133535,
        "alt_km": 587.26254213837,
        "timestamp": "2025-12-06T09:34:16.574548+00:00",
        "meta_object_name": "HUANJING 1B (HJ-1B)",
        "meta_object_id": "2008-041B",
        "meta_epoch": "2025-12-05T23:22:42.251232",
        "meta_mean_motion": 14.82793943,
        "meta_eccentricity": 0.00382466,
        "meta_inclination": 97.6392,
        "meta_ra_of_asc_node": 332.2699,
        "meta_arg_of_pericenter": 97.2246,
        "meta_mean_anomaly": 263.3318,
        "meta_ephemeris_type": 0,
        "meta_classification_type": "U",
        "meta_norad_cat_id": 33321,
        "meta_element_set_no": 999,
        "meta_rev_at_epoch": 92977,
        "meta_bstar": 0.00028713902,
        "meta_mean_motion_dot": 2.3e-05,
        "meta_mean_motion_ddot": 0,
        "tle_line1": "1 33321U 08041B   25339.97410013  .00002300  00000+0  28714-3 0  9991",
        "tle_line2": "2 33321  97.6392 332.2699 0038246  97.2246 263.3318 14.82793943929777"
      },
      "geometry": {
        "type": "Point",
        "coordinates": [
          177.04822491133535,
          71.98346290433763
        ]
      }
    },
    {
      "type": "Feature",
      "properties": {
        "norad_id": 33331,
        "name": "GEOEYE 1",
        "group": "resource",
        "lat": 36.9192226881614,
        "lon": -122.07880431438072,
        "alt_km": 677.0345298241027,
        "timestamp": "2025-12-06T09:34:16.574559+00:00",
        "meta_object_name": "GEOEYE 1",
        "meta_object_id": "2008-042A",
        "meta_epoch": "2025-12-05T23:05:09.225312",
        "meta_mean_motion": 14.64798029,
        "meta_eccentricity": 0.00028775,
        "meta_inclination": 98.126,
        "meta_ra_of_asc_node": 51.3271,
        "meta_arg_of_pericenter": 306.5803,
        "meta_mean_anomaly": 53.5135,
        "meta_ephemeris_type": 0,
        "meta_classification_type": "U",
        "meta_norad_cat_id": 33331,
        "meta_element_set_no": 999,
        "meta_rev_at_epoch": 92186,
        "meta_bstar": 0.0002286155,
        "meta_mean_motion_dot": 1.172e-05,
        "meta_mean_motion_ddot": 0,
        "tle_line1": "1 33331U 08042A   25339.96191233  .00001172  00000+0  22862-3 0  9996",
        "tle_line2": "2 33331  98.1260  51.3271 0002877 306.5803  53.5135 14.64798029921867"
      },
      "geometry": {
        "type": "Point",
        "coordinates": [
          -122.07880431438072,
          36.9192226881614
        ]
      }
    },
    {
      "type": "Feature",
      "properties": {
        "norad_id": 33396,
        "name": "THEOS",
        "group": "resource",
        "lat": -60.54556479039985,
        "lon": 54.19611717963724,
        "alt_km": 832.9045881305183,
        "timestamp": "2025-12-06T09:34:16.574569+00:00",
        "meta_object_name": "THEOS",
        "meta_object_id": "2008-049A",
        "meta_epoch": "2025-12-05T22:01:28.511040",
        "meta_mean_motion": 14.20094172,
        "meta_eccentricity": 0.00011068,
        "meta_inclination": 98.5878,
        "meta_ra_of_asc_node": 38.2083,
        "meta_arg_of_pericenter": 99.9093,
        "meta_mean_anomaly": 260.2209,
        "meta_ephemeris_type": 0,
        "meta_classification_type": "U",
        "meta_norad_cat_id": 33396,
        "meta_element_set_no": 999,
        "meta_rev_at_epoch": 89053,
        "meta_bstar": 9.3960769e-05,
        "meta_mean_motion_dot": 1.58e-06,
        "meta_mean_motion_ddot": 0,
        "tle_line1": "1 33396U 08049A   25339.91769110  .00000158  00000+0  93961-4 0  9996",
        "tle_line2": "2 33396  98.5878  38.2083 0001106  99.9093 260.2209 14.20094172890538"
      },
      "geometry": {
        "type": "Point",
        "coordinates": [
          54.19611717963724,
          -60.54556479039985
        ]
      }
    }
  ]
}